IRIDIUM 171             
1 43929U 19002H   24314.50111535  .00001367  00000+0  48099-3 0  9993
2 43929  86.3996 238.1072 0002118  72.2828 287.8599 14.34218822305151
IRIDIUM 170             
1 43930U 19002J   24314.50695431  .00006553  00000+0  10353-2 0  9990
2 43930  86.6117 237.8989 0002254  83.6598 276.4876 14.72222326313231
IRIDIUM 181             
1 56726U 23068S   24314.46403576  .00000929  00000+0  26864-3 0  9992
2 56726  86.8582 298.7083 0002253  79.1948 280.9507 14.43596139 78092
IRIDIUM 178             
1 56729U 23068V   24314.55785921  .00008972  00000+0  11762-2 0  9998
2 56729  86.5746 270.7765 0003231  77.7481 282.4102 14.80233263 79887
IRIDIUM 179             
1 56730U 23068W   24314.41710053  .00006272  00000+0  82027-3 0  9993
2 56730  86.6753 276.8040 0003139  79.1790 280.9784 14.80296944 79869
